{"type": "FeatureCollection", "features": [ {"type": "Feature", "properties": {"norad_id": 67091, "name": "STARLINK-36097", "group": "last-30-days", "lat": -37.182741934872375, "lon": 49.744541000661414, "alt_km": 335.466116827467, "timestamp": "2025-12-25T11:37:43.136921+00:00", "meta": {"OBJECT_NAME": "STARLINK-36097", "OBJECT_ID": "2025-298S", "EPOCH": "2025-12-25T04:00:01.998720", "MEAN_MOTION": 15.8100039, "ECCENTRICITY": 0.0003646, "INCLINATION": 69.9963, "RA_OF_ASC_NODE": 214.609, "ARG_OF_PERICENTER": 271.4574, "MEAN_ANOMALY": 300.7725, "EPHEMERIS_TYPE": 0, "CLASSIFICATION_TYPE": "U", "NORAD_CAT_ID": 67091, "ELEMENT_SET_NO": 999, "REV_AT_EPOCH": 297, "BSTAR": -0.010276, "MEAN_MOTION_DOT": -0.0173195, "MEAN_MOTION_DDOT": 0}, "tle": {"line1": "1 67091U 25298S   25359.16668980 -.01731950  00000+0 -10276-1 0  9991", "line2": "2 67091  69.9963 214.6090 0003646 271.4574 300.7725 15.81000390  2977"}}, "geometry": {"type": "Point", "coordinates": [49.744541000661414, -37.182741934872375]}}, {"type": "Feature", "properties": {"norad_id": 67092, "name": "STARLINK-35792", "group": "last-30-days", "lat": -38.86165864420704, "lon": 50.77068267494572, "alt_km": 335.44103192011426, "timestamp": "2025-12-25T11:37:43.136932+00:00", "meta": {"OBJECT_NAME": "STARLINK-35792", "OBJECT_ID": "2025-298T", "EPOCH": "2025-12-25T04:00:01.998720", "MEAN_MOTION": 15.81003063, "ECCENTRICITY": 0.000371, "INCLINATION": 69.9962, "RA_OF_ASC_NODE": 214.6066, "ARG_OF_PERICENTER": 271.1517, "MEAN_ANOMALY": 302.9415, "EPHEMERIS_TYPE": 0, "CLASSIFICATION_TYPE": "U", "NORAD_CAT_ID": 67092, "ELEMENT_SET_NO": 999, "REV_AT_EPOCH": 291, "BSTAR": -0.010276, "MEAN_MOTION_DOT": -0.01732279, "MEAN_MOTION_DDOT": 0}, "tle": {"line1": "1 67092U 25298T   25359.16668980 -.01732279  00000+0 -10276-1 0  9997", "line2": "2 67092  69.9962 214.6066 0003710 271.1517 302.9415 15.81003063  2910"}}, "geometry": {"type": "Point", "coordinates": [50.77068267494572, -38.86165864420704]}}, {"type": "Feature", "properties": {"norad_id": 67093, "name": "STARLINK-35784", "group": "last-30-days", "lat": -40.63203925368009, "lon": 51.91364119142419, "alt_km": 335.53347607685646, "timestamp": "2025-12-25T11:37:43.136944+00:00", "meta": {"OBJECT_NAME": "STARLINK-35784", "OBJECT_ID": "2025-298U", "EPOCH": "2025-12-25T04:00:01.998720", "MEAN_MOTION": 15.81003166, "ECCENTRICITY": 0.0003673, "INCLINATION": 69.996, "RA_OF_ASC_NODE": 214.6042, "ARG_OF_PERICENTER": 272.6713, "MEAN_ANOMALY": 303.4029, "EPHEMERIS_TYPE": 0, "CLASSIFICATION_TYPE": "U", "NORAD_CAT_ID": 67093, "ELEMENT_SET_NO": 999, "REV_AT_EPOCH": 297, "BSTAR": -0.010299, "MEAN_MOTION_DOT": -0.01735483, "MEAN_MOTION_DDOT": 0}, "tle": {"line1": "1 67093U 25298U   25359.16668980 -.01735483  00000+0 -10299-1 0  9993", "line2": "2 67093  69.9960 214.6042 0003673 272.6713 303.4029 15.81003166  2972"}}, "geometry": {"type": "Point", "coordinates": [51.91364119142419, -40.63203925368009]}}, {"type": "Feature", "properties": {"norad_id": 67094, "name": "STARLINK-36202", "group": "last-30-days", "lat": -42.54306264797758, "lon": 53.22665147167159, "alt_km": 335.6842815913051, "timestamp": "2025-12-25T11:37:43.136956+00:00", "meta": {"OBJECT_NAME": "STARLINK-36202", "OBJECT_ID": "2025-298V", "EPOCH": "2025-12-25T04:00:01.998720", "MEAN_MOTION": 15.80998855, "ECCENTRICITY": 0.0003613, "INCLINATION": 69.996, "RA_OF_ASC_NODE": 214.6015, "ARG_OF_PERICENTER": 275.2064, "MEAN_ANOMALY": 303.028, "EPHEMERIS_TYPE": 0, "CLASSIFICATION_TYPE": "U", "NORAD_CAT_ID": 67094, "ELEMENT_SET_NO": 999, "REV_AT_EPOCH": 297, "BSTAR": -0.010344, "MEAN_MOTION_DOT": -0.01778704, "MEAN_MOTION_DDOT": 0}, "tle": {"line1": "1 67094U 25298V   25359.16668980 -.01778704  00000+0 -10344-1 0  9998", "line2": "2 67094  69.9960 214.6015 0003613 275.2064 303.0280 15.80998855  2977"}}, "geometry": {"type": "Point", "coordinates": [53.22665147167159, -42.54306264797758]}}, {"type": "Feature", "properties": {"norad_id": 67095, "name": "STARLINK-36227", "group": "last-30-days", "lat": -44.34087789642103, "lon": 54.54871117867877, "alt_km": 335.81293774647474, "timestamp": "2025-12-25T11:37:43.136966+00:00", "meta": {"OBJECT_NAME": "STARLINK-36227", "OBJECT_ID": "2025-298W", "EPOCH": "2025-12-25T04:00:01.998720", "MEAN_MOTION": 15.80986289, "ECCENTRICITY": 0.0003431, "INCLINATION": 69.9958, "RA_OF_ASC_NODE": 214.5991, "ARG_OF_PERICENTER": 275.9924, "MEAN_ANOMALY": 304.2913, "EPHEMERIS_TYPE": 0, "CLASSIFICATION_TYPE": "U", "NORAD_CAT_ID": 67095, "ELEMENT_SET_NO": 999, "REV_AT_EPOCH": 291, "BSTAR": -0.010279, "MEAN_MOTION_DOT": -0.01731125, "MEAN_MOTION_DDOT": 0}, "tle": {"line1": "1 67095U 25298W   25359.16668980 -.01731125  00000+0 -10279-1 0  9992", "line2": "2 67095  69.9958 214.5991 0003431 275.9924 304.2913 15.80986289  2915"}}, "geometry": {"type": "Point", "coordinates": [54.54871117867877, -44.34087789642103]}}, {"type": "Feature", "properties": {"norad_id": 67096, "name": "STARLINK-36228", "group": "last-30-days", "lat": -45.92980015076618, "lon": 55.796897226812206, "alt_km": 335.6324291670462, "timestamp": "2025-12-25T11:37:43.136975+00:00", "meta": {"OBJECT_NAME": "STARLINK-36228", "OBJECT_ID": "2025-298X", "EPOCH": "2025-12-25T04:00:01.998720", "MEAN_MOTION": 15.80992703, "ECCENTRICITY": 0.0003454, "INCLINATION": 69.996, "RA_OF_ASC_NODE": 214.5971, "ARG_OF_PERICENTER": 270.4105, "MEAN_ANOMALY": 311.6832, "EPHEMERIS_TYPE": 0, "CLASSIFICATION_TYPE": "U", "NORAD_CAT_ID": 67096, "ELEMENT_SET_NO": 999, "REV_AT_EPOCH": 291, "BSTAR": -0.010286, "MEAN_MOTION_DOT": -0.0173273, "MEAN_MOTION_DDOT": 0}, "tle": {"line1": "1 67096U 25298X   25359.16668980 -.01732730  00000+0 -10286-1 0  9994", "line2": "2 67096  69.9960 214.5971 0003454 270.4105 311.6832 15.80992703  2913"}}, "geometry": {"type": "Point", "coordinates": [55.796897226812206, -45.92980015076618]}}, {"type": "Feature", "properties": {"norad_id": 67097, "name": "STARLINK-36222", "group": "last-30-days", "lat": -47.65301961013726, "lon": 57.248251375252025, "alt_km": 335.5585149008821, "timestamp": "2025-12-25T11:37:43.136989+00:00", "meta": {"OBJECT_NAME": "STARLINK-36222", "OBJECT_ID": "2025-298Y", "EPOCH": "2025-12-25T04:00:01.998720", "MEAN_MOTION": 15.80991651, "ECCENTRICITY": 0.0003735, "INCLINATION": 69.9958, "RA_OF_ASC_NODE": 214.5945, "ARG_OF_PERICENTER": 272.5657, "MEAN_ANOMALY": 311.5262, "EPHEMERIS_TYPE": 0, "CLASSIFICATION_TYPE": "U", "NORAD_CAT_ID": 67097, "ELEMENT_SET_NO": 999, "REV_AT_EPOCH": 291, "BSTAR": -0.010306, "MEAN_MOTION_DOT": -0.01735849, "MEAN_MOTION_DDOT": 0}, "tle": {"line1": "1 67097U 25298Y   25359.16668980 -.01735849  00000+0 -10306-1 0  9992", "line2": "2 67097  69.9958 214.5945 0003735 272.5657 311.5262 15.80991651  2916"}}, "geometry": {"type": "Point", "coordinates": [57.248251375252025, -47.65301961013726]}}, {"type": "Feature", "properties": {"norad_id": 67098, "name": "STARLINK-36205", "group": "last-30-days", "lat": -49.489081945121384, "lon": 58.92414046779791, "alt_km": 335.75190710875904, "timestamp": "2025-12-25T11:37:43.136999+00:00", "meta": {"OBJECT_NAME": "STARLINK-36205", "OBJECT_ID": "2025-298Z", "EPOCH": "2025-12-25T04:00:01.998720", "MEAN_MOTION": 15.80984923, "ECCENTRICITY": 0.0003581, "INCLINATION": 69.9958, "RA_OF_ASC_NODE": 214.592, "ARG_OF_PERICENTER": 275.5502, "MEAN_ANOMALY": 310.7001, "EPHEMERIS_TYPE": 0, "CLASSIFICATION_TYPE": "U", "NORAD_CAT_ID": 67098, "ELEMENT_SET_NO": 999, "REV_AT_EPOCH": 297, "BSTAR": -0.010338, "MEAN_MOTION_DOT": -0.01776662, "MEAN_MOTION_DDOT": 0}, "tle": {"line1": "1 67098U 25298Z   25359.16668980 -.01776662  00000+0 -10338-1 0  9996", "line2": "2 67098  69.9958 214.5920 0003581 275.5502 310.7001 15.80984923  2973"}}, "geometry": {"type": "Point", "coordinates": [58.92414046779791, -49.489081945121384]}}, {"type": "Feature", "properties": {"norad_id": 67099, "name": "STARLINK-36193", "group": "last-30-days", "lat": -48.290884192228596, "lon": 57.81402830902868, "alt_km": 341.26049857260114, "timestamp": "2025-12-25T11:37:43.137009+00:00", "meta": {"OBJECT_NAME": "STARLINK-36193", "OBJECT_ID": "2025-298AA", "EPOCH": "2025-12-25T04:00:01.998720", "MEAN_MOTION": 15.79484844, "ECCENTRICITY": 0.0003477, "INCLINATION": 69.9959, "RA_OF_ASC_NODE": 214.5912, "ARG_OF_PERICENTER": 267.3686, "MEAN_ANOMALY": 319.4715, "EPHEMERIS_TYPE": 0, "CLASSIFICATION_TYPE": "U", "NORAD_CAT_ID": 67099, "ELEMENT_SET_NO": 999, "REV_AT_EPOCH": 291, "BSTAR": -0.015583, "MEAN_MOTION_DOT": -0.02440892, "MEAN_MOTION_DDOT": 0}, "tle": {"line1": "1 67099U 25298AA  25359.16668980 -.02440892  00000+0 -15583-1 0  9998", "line2": "2 67099  69.9959 214.5912 0003477 267.3686 319.4715 15.79484844  2919"}}, "geometry": {"type": "Point", "coordinates": [57.81402830902868, -48.290884192228596]}}, {"type": "Feature", "properties": {"norad_id": 67100, "name": "STARLINK-36215", "group": "last-30-days", "lat": -54.0385564815362, "lon": 63.82121540800594, "alt_km": 335.68503218771366, "timestamp": "2025-12-25T11:37:43.137019+00:00", "meta": {"OBJECT_NAME": "STARLINK-36215", "OBJECT_ID": "2025-298AB", "EPOCH": "2025-12-25T04:00:01.998720", "MEAN_MOTION": 15.80988534, "ECCENTRICITY": 0.0003633, "INCLINATION": 69.9956, "RA_OF_ASC_NODE": 214.5854, "ARG_OF_PERICENTER": 276.1191, "MEAN_ANOMALY": 315.5967, "EPHEMERIS_TYPE": 0, "CLASSIFICATION_TYPE": "U", "NORAD_CAT_ID": 67100, "ELEMENT_SET_NO": 999, "REV_AT_EPOCH": 297, "BSTAR": -0.010275, "MEAN_MOTION_DOT": -0.01730951, "MEAN_MOTION_DDOT": 0}, "tle": {"line1": "1 67100U 25298AB  25359.16668980 -.01730951  00000+0 -10275-1 0  9991", "line2": "2 67100  69.9956 214.5854 0003633 276.1191 315.5967 15.80988534  2976"}}, "geometry": {"type": "Point", "coordinates": [63.82121540800594, -54.0385564815362]}}]}